{
  "norad_id": 55604,
  "name": "STARLINK-5748",
  "history": [
    {
      "epoch": "2026-03-28T20:40:31.418400Z",
      "apogee_km": 486.78977036473134,
      "perigee_km": 484.2831568158281,
      "latitude_deg": 3.7489800761592186e-05,
      "longitude_deg": 94.64298580614552,
      "height_km": 485.38689749052753,
      "semi_major_axis_km": 6863.673463590279,
      "eccentricity": 0.0001826,
      "inclination_deg": 43.0026,
      "raan_deg": 231.0497,
      "arg_perigee_deg": 266.6592,
      "mean_anomaly_deg": 93.4051,
      "mean_motion_rev_day": 15.26749692
    }
  ]
}